{
  "norad_id": 58444,
  "name": "STARLINK-30963",
  "history": [
    {
      "epoch": "2026-03-28T13:31:58.011168Z",
      "apogee_km": 483.98415482037944,
      "perigee_km": 482.1055632273792,
      "latitude_deg": 5.993287573372574e-05,
      "longitude_deg": -94.18465665430604,
      "height_km": 482.9820104188523,
      "semi_major_axis_km": 6861.181859023879,
      "eccentricity": 0.0001369,
      "inclination_deg": 43.0053,
      "raan_deg": 294.7895,
      "arg_perigee_deg": 260.1967,
      "mean_anomaly_deg": 99.8731,
      "mean_motion_rev_day": 15.27581415
    },
    {
      "epoch": "2026-03-28T22:56:53.843136Z",
      "apogee_km": 484.0739145281723,
      "perigee_km": 481.99772363311877,
      "latitude_deg": -2.3718499639644964e-05,
      "longitude_deg": 121.98123958986837,
      "height_km": 482.78720228257384,
      "semi_major_axis_km": 6861.172819080645,
      "eccentricity": 0.0001513,
      "inclination_deg": 43.0048,
      "raan_deg": 292.5748,
      "arg_perigee_deg": 271.4325,
      "mean_anomaly_deg": 88.6353,
      "mean_motion_rev_day": 15.27584434
    },
    {
      "epoch": "2026-03-30T06:20:01.639104Z",
      "apogee_km": 484.0617984987848,
      "perigee_km": 482.04268772832074,
      "latitude_deg": 4.6080286773817264e-05,
      "longitude_deg": 2.5244749732816167,
      "height_km": 482.6628375517232,
      "semi_major_axis_km": 6861.189243113553,
      "eccentricity": 0.00014714,
      "inclination_deg": 43.004,
      "raan_deg": 285.1894,
      "arg_perigee_deg": 279.4994,
      "mean_anomaly_deg": 80.5692,
      "mean_motion_rev_day": 15.27578949
    },
    {
      "epoch": "2026-03-30T14:10:49.677600Z",
      "apogee_km": 484.0286214102034,
      "perigee_km": 482.1515269072552,
      "latitude_deg": -3.733504725476272e-05,
      "longitude_deg": -117.34482558326766,
      "height_km": 482.78080862179513,
      "semi_major_axis_km": 6861.227074158729,
      "eccentricity": 0.00013679,
      "inclination_deg": 43.0035,
      "raan_deg": 283.3426,
      "arg_perigee_deg": 275.2785,
      "mean_anomaly_deg": 84.791,
      "mean_motion_rev_day": 15.27566315
    },
    {
      "epoch": "2026-03-30T22:01:37.075872Z",
      "apogee_km": 484.12747428085004,
      "perigee_km": 482.0788451939561,
      "latitude_deg": 9.669163947579303e-06,
      "longitude_deg": 122.79038783059445,
      "height_km": 482.75447483676203,
      "semi_major_axis_km": 6861.240159737403,
      "eccentricity": 0.00014929,
      "inclination_deg": 43.0044,
      "raan_deg": 281.4975,
      "arg_perigee_deg": 277.0637,
      "mean_anomaly_deg": 83.0045,
      "mean_motion_rev_day": 15.27561945
    },
    {
      "epoch": "2026-03-31T13:43:12.796032Z",
      "apogee_km": 484.029477836405,
      "perigee_km": 482.25789516314944,
      "latitude_deg": 1.04076379156622e-05,
      "longitude_deg": -116.94654359061546,
      "height_km": 482.88229228791727,
      "semi_major_axis_km": 6861.2806864997765,
      "eccentricity": 0.0001291,
      "inclination_deg": 43.0044,
      "raan_deg": 277.8039,
      "arg_perigee_deg": 272.4912,
      "mean_anomaly_deg": 87.5792,
      "mean_motion_rev_day": 15.27548411
    },
    {
      "epoch": "2026-03-31T23:08:06.982080Z",
      "apogee_km": 483.9547613235063,
      "perigee_km": 482.14683833825075,
      "latitude_deg": 4.541974951925189e-05,
      "longitude_deg": 99.22425665941353,
      "height_km": 482.910275529953,
      "semi_major_axis_km": 6861.187799830878,
      "eccentricity": 0.00013175,
      "inclination_deg": 43.0046,
      "raan_deg": 275.5871,
      "arg_perigee_deg": 264.7731,
      "mean_anomaly_deg": 95.2971,
      "mean_motion_rev_day": 15.27579431
    },
    {
      "epoch": "2026-04-02T12:47:52.316160Z",
      "apogee_km": 483.7136352634234,
      "perigee_km": 482.44527078991723,
      "latitude_deg": -5.847424403988317e-05,
      "longitude_deg": -116.12279219105582,
      "height_km": 482.702610661946,
      "semi_major_axis_km": 6861.21645302667,
      "eccentricity": 9.243e-05,
      "inclination_deg": 43.0036,
      "raan_deg": 266.7258,
      "arg_perigee_deg": 284.011,
      "mean_anomaly_deg": 76.0638,
      "mean_motion_rev_day": 15.27569862
    },
    {
      "epoch": "2026-04-03T20:10:58.421280Z",
      "apogee_km": 483.58586233355163,
      "perigee_km": 482.47846963016127,
      "latitude_deg": 3.124881827428122e-05,
      "longitude_deg": 124.42682839562393,
      "height_km": 482.85751878303415,
      "semi_major_axis_km": 6861.169165981856,
      "eccentricity": 8.07e-05,
      "inclination_deg": 43.0033,
      "raan_deg": 259.3397,
      "arg_perigee_deg": 264.9424,
      "mean_anomaly_deg": 95.1336,
      "mean_motion_rev_day": 15.27585654
    },
    {
      "epoch": "2026-04-04T19:43:20.032032Z",
      "apogee_km": 483.56868944091184,
      "perigee_km": 482.54911572978654,
      "latitude_deg": 5.253184974024226e-05,
      "longitude_deg": 124.83157930402568,
      "height_km": 482.6859049618502,
      "semi_major_axis_km": 6861.195902585348,
      "eccentricity": 7.43e-05,
      "inclination_deg": 43.0041,
      "raan_deg": 253.8012,
      "arg_perigee_deg": 287.0612,
      "mean_anomaly_deg": 73.0159,
      "mean_motion_rev_day": 15.27576725
    },
    {
      "epoch": "2026-04-05T11:24:54.669600Z",
      "apogee_km": 483.642141827203,
      "perigee_km": 482.5527150246571,
      "latitude_deg": 1.615469070019301e-05,
      "longitude_deg": -114.9022704605124,
      "height_km": 482.9584219743374,
      "semi_major_axis_km": 6861.23442842593,
      "eccentricity": 7.939e-05,
      "inclination_deg": 43.0017,
      "raan_deg": 250.1062,
      "arg_perigee_deg": 261.0598,
      "mean_anomaly_deg": 99.0164,
      "mean_motion_rev_day": 15.27563859
    },
    {
      "epoch": "2026-04-05T20:49:51.045888Z",
      "apogee_km": 483.4969498609289,
      "perigee_km": 482.6826594637523,
      "latitude_deg": -1.6250877337075373e-05,
      "longitude_deg": 101.26080566114538,
      "height_km": 483.0526881138937,
      "semi_major_axis_km": 6861.22680466234,
      "eccentricity": 5.934e-05,
      "inclination_deg": 43.0019,
      "raan_deg": 247.8909,
      "arg_perigee_deg": 242.6951,
      "mean_anomaly_deg": 117.384,
      "mean_motion_rev_day": 15.27566405
    },
    {
      "epoch": "2026-04-07T10:29:35.229120Z",
      "apogee_km": 484.12600747773195,
      "perigee_km": 482.0441754707372,
      "latitude_deg": 7.529833463294444e-06,
      "longitude_deg": -114.08090437667227,
      "height_km": 482.8897618041111,
      "semi_major_axis_km": 6861.222091474235,
      "eccentricity": 0.00015171,
      "inclination_deg": 43.0051,
      "raan_deg": 239.03,
      "arg_perigee_deg": 268.4967,
      "mean_anomaly_deg": 91.5711,
      "mean_motion_rev_day": 15.27567979
    },
    {
      "epoch": "2026-04-08T10:01:58.121184Z",
      "apogee_km": 491.1461290914649,
      "perigee_km": 482.22762450368555,
      "latitude_deg": 5.284451700091933e-05,
      "longitude_deg": -113.68318340537549,
      "height_km": 482.00800254872547,
      "semi_major_axis_km": 6864.823876797575,
      "eccentricity": 0.00064958,
      "inclination_deg": 43.003,
      "raan_deg": 233.4898,
      "arg_perigee_deg": 357.6878,
      "mean_anomaly_deg": 2.3943,
      "mean_motion_rev_day": 15.26365927
    },
    {
      "epoch": "2026-04-09T18:59:12.747264Z",
      "apogee_km": 484.1497788821571,
      "perigee_km": 481.89931789428465,
      "latitude_deg": -2.932303157478883e-05,
      "longitude_deg": 102.89950761066255,
      "height_km": 482.5506742147217,
      "semi_major_axis_km": 6861.161548388221,
      "eccentricity": 0.000164,
      "inclination_deg": 43.004,
      "raan_deg": 225.7369,
      "arg_perigee_deg": 282.9007,
      "mean_anomaly_deg": 77.1661,
      "mean_motion_rev_day": 15.27588198
    },
    {
      "epoch": "2026-04-10T06:00:00.999648Z",
      "apogee_km": 484.1020226407518,
      "perigee_km": 482.16714405424773,
      "latitude_deg": 4.444330730100872,
      "longitude_deg": -60.590842494590625,
      "height_km": 482.8219931687407,
      "semi_major_axis_km": 6861.2715833474995,
      "eccentricity": 0.000141,
      "inclination_deg": 43.002,
      "raan_deg": 223.1456,
      "arg_perigee_deg": 253.4818,
      "mean_anomaly_deg": 113.0731,
      "mean_motion_rev_day": 15.27551451
    },
    {
      "epoch": "2026-04-11T18:03:55.180800Z",
      "apogee_km": 483.94260247527836,
      "perigee_km": 482.154577510526,
      "latitude_deg": -3.2667903501981256e-05,
      "longitude_deg": 103.71155008490277,
      "height_km": 482.78639150101395,
      "semi_major_axis_km": 6861.185589992902,
      "eccentricity": 0.0001303,
      "inclination_deg": 43.0036,
      "raan_deg": 214.6592,
      "arg_perigee_deg": 272.5149,
      "mean_anomaly_deg": 87.5553,
      "mean_motion_rev_day": 15.27580169
    },
    {
      "epoch": "2026-04-13T06:09:31.221504Z",
      "apogee_km": 484.08399240058225,
      "perigee_km": 482.03702273617364,
      "latitude_deg": 2.007597493780611e-05,
      "longitude_deg": -87.66396500941883,
      "height_km": 482.8503852971383,
      "semi_major_axis_km": 6861.197507568378,
      "eccentricity": 0.00014917,
      "inclination_deg": 43.0021,
      "raan_deg": 206.1661,
      "arg_perigee_deg": 269.2795,
      "mean_anomaly_deg": 90.7886,
      "mean_motion_rev_day": 15.27576189
    },
    {
      "epoch": "2026-04-14T16:40:58.187424Z",
      "apogee_km": 484.08187547171565,
      "perigee_km": 482.0962366510903,
      "latitude_deg": -9.897118159516358e-06,
      "longitude_deg": 104.931689760153,
      "height_km": 482.92816120436447,
      "semi_major_axis_km": 6861.226056061402,
      "eccentricity": 0.0001447,
      "inclination_deg": 43.0019,
      "raan_deg": 198.042,
      "arg_perigee_deg": 266.4103,
      "mean_anomaly_deg": 93.6583,
      "mean_motion_rev_day": 15.27566655
    }
  ]
}